GOES 18                 
1 51850U 22021A   26073.54133532  .00000096  00000+0  00000+0 0  9993
2 51850   0.0348  37.3150 0000807  24.6626 168.0462  1.00272820  5640
GOES 19                 
1 60133U 24119A   26073.55355538 -.00000249  00000+0  00000+0 0  9991
2 60133   0.0399 331.2250 0001104  70.9444 254.0878  1.00271909  6016
